INTELSAT 28 (IS-28)     
1 37392U 11016A   26095.24489444 -.00000223  00000+0  00000+0 0  9990
2 37392   1.6176  83.5048 0004540 298.2876 228.2127  1.00271872 52559
YAHSAT 1A               
1 37393U 11016B   26095.54150501  .00000103  00000+0  00000+0 0  9999
2 37393   0.0053 229.6090 0003316 155.7374  55.9264  1.00270005 41672
SBIRS GEO-1 (USA 230)   
1 37481U 11019A   26095.54133168  .00000103  00000+0  00000+0 0  9990
2 37481   4.3775  53.1098 0002242 318.3237  69.0874  1.00272178 54678
TELSTAR 14R             
1 37602U 11021A   26095.35531038  .00000000  00000+0  00000+0 0  9991
2 37602   0.0160 213.7289 0002430 167.2529 237.5813  1.00269068 55102
GSAT-8                  
1 37605U 11022A   26095.54193836  .00000087  00000+0  00000+0 0  9991
2 37605   1.9433  82.6941 0005609 224.9669 136.3319  1.00272226 52499
ST-2                    
1 37606U 11022B   26095.55969924 -.00000210  00000+0  00000+0 0  9991
2 37606   0.0164 215.8309 0001948 170.7381  96.7903  1.00273400 54552
ZHONGXING-10            
1 37677U 11026A   26095.61928708 -.00000187  00000+0  00000+0 0  9998
2 37677   0.8596  85.0158 0002799 309.2898 108.1144  1.00270823 54273
SES-3                   
1 37748U 11035A   26095.51065155 -.00000100  00000+0  00000+0 0  9999
2 37748   1.1385  83.8399 0003430 297.1806 253.6205  1.00272330 53865
KAZSAT-2                
1 37749U 11035B   26095.55906910 -.00000196  00000+0  00000+0 0  9992
2 37749   0.0382 326.4905 0001415 119.9326  35.1995  1.00270489 52679
BEIDOU-2 IGSO-4         
1 37763U 11038A   26087.66258249 -.00000109  00000+0  00000+0 0  9993
2 37763  54.5871 166.4040 0156581 231.4212 120.2889  1.00260433 53838
ASTRA 1N                
1 37775U 11041A   26095.53483166  .00000121  00000+0  00000+0 0  9996
2 37775   0.0896  43.1413 0005128 359.5012   2.9063  1.00270232 43791
BSAT-3C (JCSAT-110R)    
1 37776U 11041B   26095.60595686 -.00000349  00000+0  00000+0 0  9999
2 37776   0.0460  43.1074 0000197 247.7635 231.1406  1.00271866 49744
PAKSAT-1R               
1 37779U 11042A   26095.53855833  .00000155  00000+0  00000+0 0  9992
2 37779   0.5002  85.1420 0003185 323.6630  16.9182  1.00279156 53749
SES-2                   
1 37809U 11049A   26095.51385823 -.00000194  00000+0  00000+0 0  9992
2 37809   0.0566  68.2875 0002963 310.0486 273.4688  1.00272167 53231
ARABSAT-5C              
1 37810U 11049B   26095.53500499  .00000000  00000+0  00000+0 0  9999
2 37810   0.0401  27.9394 0002831   3.2794  15.1627  1.00273507 53307
EUTELSAT 7 WEST A       
1 37816U 11051A   26095.34211547 -.00000059  00000+0  00000+0 0  9995
2 37816   0.0783  31.7727 0001728  87.1040 190.5893  1.00272763 53146
QUETZSAT 1              
1 37826U 11054A   26095.51576491 -.00000240  00000+0  00000+0 0  9992
2 37826   0.0510  61.3788 0002308 315.5941 285.5240  1.00271233 49141
