[{"OBJECT_NAME":"INTELSAT 28 (IS-28)","OBJECT_ID":"2011-016A","EPOCH":"2026-04-05T05:52:38.879616","MEAN_MOTION":1.00271872,"ECCENTRICITY":0.000454,"INCLINATION":1.6176,"RA_OF_ASC_NODE":83.5048,"ARG_OF_PERICENTER":298.2876,"MEAN_ANOMALY":228.2127,"EPHEMERIS_TYPE":0,"CLASSIFICATION_TYPE":"U","NORAD_CAT_ID":37392,"ELEMENT_SET_NO":999,"REV_AT_EPOCH":5255,"BSTAR":0,"MEAN_MOTION_DOT":-2.23e-6,"MEAN_MOTION_DDOT":0},{"OBJECT_NAME":"YAHSAT 1A","OBJECT_ID":"2011-016B","EPOCH":"2026-04-05T12:59:46.032864","MEAN_MOTION":1.00270005,"ECCENTRICITY":0.00033168,"INCLINATION":0.0053,"RA_OF_ASC_NODE":229.609,"ARG_OF_PERICENTER":155.7374,"MEAN_ANOMALY":55.9264,"EPHEMERIS_TYPE":0,"CLASSIFICATION_TYPE":"U","NORAD_CAT_ID":37393,"ELEMENT_SET_NO":999,"REV_AT_EPOCH":4167,"BSTAR":0,"MEAN_MOTION_DOT":1.03e-6,"MEAN_MOTION_DDOT":0},{"OBJECT_NAME":"SBIRS GEO-1 (USA 230)","OBJECT_ID":"2011-019A","EPOCH":"2026-04-05T12:59:31.057152","MEAN_MOTION":1.00272178,"ECCENTRICITY":0.00022422,"INCLINATION":4.3775,"RA_OF_ASC_NODE":53.1098,"ARG_OF_PERICENTER":318.3237,"MEAN_ANOMALY":69.0874,"EPHEMERIS_TYPE":0,"CLASSIFICATION_TYPE":"U","NORAD_CAT_ID":37481,"ELEMENT_SET_NO":999,"REV_AT_EPOCH":5467,"BSTAR":0,"MEAN_MOTION_DOT":1.03e-6,"MEAN_MOTION_DDOT":0},{"OBJECT_NAME":"TELSTAR 14R","OBJECT_ID":"2011-021A","EPOCH":"2026-04-05T08:31:38.816832","MEAN_MOTION":1.00269068,"ECCENTRICITY":0.00024306,"INCLINATION":0.016,"RA_OF_ASC_NODE":213.7289,"ARG_OF_PERICENTER":167.2529,"MEAN_ANOMALY":237.5813,"EPHEMERIS_TYPE":0,"CLASSIFICATION_TYPE":"U","NORAD_CAT_ID":37602,"ELEMENT_SET_NO":999,"REV_AT_EPOCH":5510,"BSTAR":0,"MEAN_MOTION_DOT":0,"MEAN_MOTION_DDOT":0},{"OBJECT_NAME":"GSAT-8","OBJECT_ID":"2011-022A","EPOCH":"2026-04-05T13:00:23.474304","MEAN_MOTION":1.00272226,"ECCENTRICITY":0.00056096,"INCLINATION":1.9433,"RA_OF_ASC_NODE":82.6941,"ARG_OF_PERICENTER":224.9669,"MEAN_ANOMALY":136.3319,"EPHEMERIS_TYPE":0,"CLASSIFICATION_TYPE":"U","NORAD_CAT_ID":37605,"ELEMENT_SET_NO":999,"REV_AT_EPOCH":5249,"BSTAR":0,"MEAN_MOTION_DOT":8.7e-7,"MEAN_MOTION_DDOT":0},{"OBJECT_NAME":"ST-2","OBJECT_ID":"2011-022B","EPOCH":"2026-04-05T13:25:58.014336","MEAN_MOTION":1.002734,"ECCENTRICITY":0.00019486,"INCLINATION":0.0164,"RA_OF_ASC_NODE":215.8309,"ARG_OF_PERICENTER":170.7381,"MEAN_ANOMALY":96.7903,"EPHEMERIS_TYPE":0,"CLASSIFICATION_TYPE":"U","NORAD_CAT_ID":37606,"ELEMENT_SET_NO":999,"REV_AT_EPOCH":5455,"BSTAR":0,"MEAN_MOTION_DOT":-2.1e-6,"MEAN_MOTION_DDOT":0},{"OBJECT_NAME":"ZHONGXING-10","OBJECT_ID":"2011-026A","EPOCH":"2026-04-05T14:51:46.403712","MEAN_MOTION":1.00270823,"ECCENTRICITY":0.0002799,"INCLINATION":0.8596,"RA_OF_ASC_NODE":85.0158,"ARG_OF_PERICENTER":309.2898,"MEAN_ANOMALY":108.1144,"EPHEMERIS_TYPE":0,"CLASSIFICATION_TYPE":"U","NORAD_CAT_ID":37677,"ELEMENT_SET_NO":999,"REV_AT_EPOCH":5427,"BSTAR":0,"MEAN_MOTION_DOT":-1.87e-6,"MEAN_MOTION_DDOT":0},{"OBJECT_NAME":"SES-3","OBJECT_ID":"2011-035A","EPOCH":"2026-04-05T12:15:20.293920","MEAN_MOTION":1.0027233,"ECCENTRICITY":0.00034306,"INCLINATION":1.1385,"RA_OF_ASC_NODE":83.8399,"ARG_OF_PERICENTER":297.1806,"MEAN_ANOMALY":253.6205,"EPHEMERIS_TYPE":0,"CLASSIFICATION_TYPE":"U","NORAD_CAT_ID":37748,"ELEMENT_SET_NO":999,"REV_AT_EPOCH":5386,"BSTAR":0,"MEAN_MOTION_DOT":-1.0e-6,"MEAN_MOTION_DDOT":0},{"OBJECT_NAME":"KAZSAT-2","OBJECT_ID":"2011-035B","EPOCH":"2026-04-05T13:25:03.570240","MEAN_MOTION":1.00270489,"ECCENTRICITY":0.00014157,"INCLINATION":0.0382,"RA_OF_ASC_NODE":326.4905,"ARG_OF_PERICENTER":119.9326,"MEAN_ANOMALY":35.1995,"EPHEMERIS_TYPE":0,"CLASSIFICATION_TYPE":"U","NORAD_CAT_ID":37749,"ELEMENT_SET_NO":999,"REV_AT_EPOCH":5267,"BSTAR":0,"MEAN_MOTION_DOT":-1.96e-6,"MEAN_MOTION_DDOT":0},{"OBJECT_NAME":"BEIDOU-2 IGSO-4","OBJECT_ID":"2011-038A","EPOCH":"2026-03-28T15:54:07.127136","MEAN_MOTION":1.00260433,"ECCENTRICITY":0.0156581,"INCLINATION":54.5871,"RA_OF_ASC_NODE":166.404,"ARG_OF_PERICENTER":231.4212,"MEAN_ANOMALY":120.2889,"EPHEMERIS_TYPE":0,"CLASSIFICATION_TYPE":"U","NORAD_CAT_ID":37763,"ELEMENT_SET_NO":999,"REV_AT_EPOCH":5383,"BSTAR":0,"MEAN_MOTION_DOT":-1.09e-6,"MEAN_MOTION_DDOT":0},{"OBJECT_NAME":"ASTRA 1N","OBJECT_ID":"2011-041A","EPOCH":"2026-04-05T12:50:09.455424","MEAN_MOTION":1.00270232,"ECCENTRICITY":0.0005128,"INCLINATION":0.0896,"RA_OF_ASC_NODE":43.1413,"ARG_OF_PERICENTER":359.5012,"MEAN_ANOMALY":2.9063,"EPHEMERIS_TYPE":0,"CLASSIFICATION_TYPE":"U","NORAD_CAT_ID":37775,"ELEMENT_SET_NO":999,"REV_AT_EPOCH":4379,"BSTAR":0,"MEAN_MOTION_DOT":1.21e-6,"MEAN_MOTION_DDOT":0},{"OBJECT_NAME":"BSAT-3C (JCSAT-110R)","OBJECT_ID":"2011-041B","EPOCH":"2026-04-05T14:32:34.672704","MEAN_MOTION":1.00271866,"ECCENTRICITY":1.971e-5,"INCLINATION":0.046,"RA_OF_ASC_NODE":43.1074,"ARG_OF_PERICENTER":247.7635,"MEAN_ANOMALY":231.1406,"EPHEMERIS_TYPE":0,"CLASSIFICATION_TYPE":"U","NORAD_CAT_ID":37776,"ELEMENT_SET_NO":999,"REV_AT_EPOCH":4974,"BSTAR":0,"MEAN_MOTION_DOT":-3.49e-6,"MEAN_MOTION_DDOT":0},{"OBJECT_NAME":"PAKSAT-1R","OBJECT_ID":"2011-042A","EPOCH":"2026-04-05T12:55:31.439712","MEAN_MOTION":1.00279156,"ECCENTRICITY":0.00031859,"INCLINATION":0.5002,"RA_OF_ASC_NODE":85.142,"ARG_OF_PERICENTER":323.663,"MEAN_ANOMALY":16.9182,"EPHEMERIS_TYPE":0,"CLASSIFICATION_TYPE":"U","NORAD_CAT_ID":37779,"ELEMENT_SET_NO":999,"REV_AT_EPOCH":5374,"BSTAR":0,"MEAN_MOTION_DOT":1.55e-6,"MEAN_MOTION_DDOT":0},{"OBJECT_NAME":"SES-2","OBJECT_ID":"2011-049A","EPOCH":"2026-04-05T12:19:57.351072","MEAN_MOTION":1.00272167,"ECCENTRICITY":0.00029634,"INCLINATION":0.0566,"RA_OF_ASC_NODE":68.2875,"ARG_OF_PERICENTER":310.0486,"MEAN_ANOMALY":273.4688,"EPHEMERIS_TYPE":0,"CLASSIFICATION_TYPE":"U","NORAD_CAT_ID":37809,"ELEMENT_SET_NO":999,"REV_AT_EPOCH":5323,"BSTAR":0,"MEAN_MOTION_DOT":-1.94e-6,"MEAN_MOTION_DDOT":0},{"OBJECT_NAME":"ARABSAT-5C","OBJECT_ID":"2011-049B","EPOCH":"2026-04-05T12:50:24.431136","MEAN_MOTION":1.00273507,"ECCENTRICITY":0.00028317,"INCLINATION":0.0401,"RA_OF_ASC_NODE":27.9394,"ARG_OF_PERICENTER":3.2794,"MEAN_ANOMALY":15.1627,"EPHEMERIS_TYPE":0,"CLASSIFICATION_TYPE":"U","NORAD_CAT_ID":37810,"ELEMENT_SET_NO":999,"REV_AT_EPOCH":5330,"BSTAR":0,"MEAN_MOTION_DOT":0,"MEAN_MOTION_DDOT":0},{"OBJECT_NAME":"EUTELSAT 7 WEST A","OBJECT_ID":"2011-051A","EPOCH":"2026-04-05T08:12:38.776608","MEAN_MOTION":1.00272763,"ECCENTRICITY":0.00017289,"INCLINATION":0.0783,"RA_OF_ASC_NODE":31.7727,"ARG_OF_PERICENTER":87.104,"MEAN_ANOMALY":190.5893,"EPHEMERIS_TYPE":0,"CLASSIFICATION_TYPE":"U","NORAD_CAT_ID":37816,"ELEMENT_SET_NO":999,"REV_AT_EPOCH":5314,"BSTAR":0,"MEAN_MOTION_DOT":-5.9e-7,"MEAN_MOTION_DDOT":0},{"OBJECT_NAME":"QUETZSAT 1","OBJECT_ID":"2011-054A","EPOCH":"2026-04-05T12:22:42.088224","MEAN_MOTION":1.00271233,"ECCENTRICITY":0.00023083,"INCLINATION":0.051,"RA_OF_ASC_NODE":61.3788,"ARG_OF_PERICENTER":315.5941,"MEAN_ANOMALY":285.524,"EPHEMERIS_TYPE":0,"CLASSIFICATION_TYPE":"U","NORAD_CAT_ID":37826,"ELEMENT_SET_NO":999,"REV_AT_EPOCH":4914,"BSTAR":0,"MEAN_MOTION_DOT":-2.4e-6,"MEAN_MOTION_DDOT":0}]
